name,region,address,phone,money
財團法人台灣省私立高雄仁愛之家,大寮區,高雄市大寮區後庄里民順街1號,07-7037380,15000
高雄市私立和信老人長期照顧中心 (養護型),前鎮區,高雄市前鎮區和平二路207號6樓、203號7樓,07-7220726,22000
高雄市私立親親老人長期照顧中心（養護型）,前鎮區,高雄市前鎮區和平二路205、207號5樓,07-7220251,20000
高雄市私立安和老人長期照顧中心（養護型）,前鎮區,高雄市前鎮區和平二路205、207號12樓,07-7226456,22000
高雄市私立安仁老人長期照顧中心(養護型),前鎮區,高雄市前鎮區和平二路203、205、207號4樓,07-7226456,22000
高雄市私立合信老人長期照顧中心（養護型）,前鎮區,高雄市前鎮區和平二路203、207號11樓,07-7220726,21000
高雄市私立溫心養護中心,前鎮區,高雄市前鎮區廣西路200號1-3樓,07-3339696,21000
高雄市私立耀群老人長期照顧中心(養護型),前鎮區,高雄市前鎮區瑞北路241號1-2樓,07-7171168,21000
高雄市私立雙喜老人長期照顧中心（養護型）,前鎮區,高雄市前鎮區和平二路205、207號10樓,07-7224765,22000
高雄市私立幸福一家老人長期照顧中心（養護型）,前鎮區,高雄市前鎮區漁港路93-1號,07-8157277,25000
高雄市私立心橋老人長期照顧中心（養護型）,前鎮區,高雄市前鎮區和平二路203、205號3樓,07-7224765,22000
高雄市私立全人老人長期照顧中心(養護型),前鎮區,高雄市前鎮區和平二路203號6樓,07-7617665,22000
高雄市私立上和老人長期照顧中心(養護型),前鎮區,高雄市前鎮區草衙中街95號,07-8127575,27000
高雄市私立瑞翁老人長期照顧中心(養護型),小港區,高雄市小港區水秀路35號1樓,07-8038600,21000
高雄市私立人愛養護之家,小港區,高雄市小港區高坪二十三路712號2-3樓,07-8913131,23000
高雄市私立祐安養護中心,小港區,高雄市小港區宏平路292號1-4樓,07-8036565,23000
高雄市私立祥和養護中心,小港區,高雄市小港區民益路27號1-6樓,07-8063516,25000
高雄市私立傳祐老人長期照顧中心(養護型),小港區,高雄市小港區沿海一路377號1至3樓,07-8071593,24000
高雄市私立康庭老人長期照顧中心(養護型),小港區,高雄市小港區高坪二十街25巷51號1-2樓,07-8913966,21000
高雄市私立中安崇恩老人長期照顧中心(養護型),小港區,高雄市小港區桂園路106號,07-7915106,21000
信義醫療財團法人附設高雄市私立方舟養護之家,苓雅區,高雄市苓雅區成功一路135巷26號1-5樓,07-3321111,27000
高雄市私立吉翁養護之家,苓雅區,高雄市苓雅區澄清路200號1-2樓,07-7470522,21000
高雄市私立新立養護中心,苓雅區,高雄市苓雅區三多四路63號9樓之7,07-3301000,16500
高雄市私立芳園老人長期照顧中心(養護型),苓雅區,高雄市苓雅區文山路142號,07-7470306,21000
高雄市私立好順心老人長期照顧中心(養護型),苓雅區,高雄市苓雅區二聖一路12號,07-7166177,21000
高雄市私立順心老人長期照顧中心(養護型),苓雅區,高雄市苓雅區二聖一路16號,07-7165977,21000
高雄市私立大順老人長期照顧中心（養護型）,前金區,高雄市前金區七賢二路220-8號1-5樓,07-2015501,21000
高雄市私立健生老人養護中心,前金區,高雄市前金區七賢二路426號3樓,07-2614912,16500
高雄市私立孝升老人長期照顧中心(養護型),前金區,高雄市前金區七賢二路256號1-6樓,07-2723067,18000
高雄市私立新松柏養護之家,三民區,高雄市三民區十全二路323號4樓,07-3229507,19000
高雄市私立富華養護中心,三民區,高雄市三民區九如二路150號15樓之1,07-3161076,19000
高雄市私立慈融老人長期照顧中心(養護型),三民區,高雄市三民區中華二路213號,07-3223278,21000
高雄市私立德安養護之家,三民區,高雄市三民區博愛一路55號11樓,07-3121010,21000
高雄市私立天誠老人養護中心,三民區,高雄市三民區九如二路150號5樓之1,07-3125009,21000
高雄市私立高生老人養護中心,三民區,高雄市三民區博愛一路372號8樓,07-3138636,21000
高雄市私立和興老人長期照顧中心(養護型),三民區,高雄市三民區建興路277號4樓,07-3871285,21000
高雄市私立佛心老人長期照顧中心(養護型),三民區,高雄市三民區寶安街62號1-2樓,07-3873677,20000
高雄市私立安心老人長期照顧中心(養護型),三民區,高雄市三民區凱歌路161號1樓,07-2223077,21000
高雄市私立永康老人養護中心,三民區,高雄市三民區建國二路2號8樓,07-2388603,18000
高雄市私立大昌老人長期照顧中心(養護型),三民區,高雄市三民區大昌二路346號2、3樓,07-3835495,22000
高雄市私立仁祥養護之家,三民區,高雄市三民區九如一路299、301號1-5樓,07-3973255,18000
高雄市私立信心養護中心,三民區,高雄市三民區自由一路61號(1-2樓),07-3137999,21000
高雄市私立立昌老人長期照顧中心(養護型),三民區,高雄市三民區大昌二路346號4、5樓,07-3835495,22000
高雄市私立昭和養護之家,三民區,高雄市三民區九如二路295號1-5樓,07-3222749,21000
高雄市私立善之老人長期照顧中心(養護型),三民區,高雄市三民區松江街348號,07-3228986,21000
高雄市私立普祐老人長期照顧中心(養護型),三民區,高雄市三民區自立一路226號4樓,07-3232938,22000
高雄市私立安泰老人長期照顧中心(養護型),三民區,高雄市三民區大昌二路268號4樓,07-3907789,25000
高雄市私立安大老人長期照顧中心(養護型),三民區,高雄市三民區大昌二路268號3樓,07-3978666,26000
高雄市私立珍心老人長期照顧中心(養護型),三民區,高雄市三民區建工路445號1樓,07-3806101,21000
高雄市私立新珍心老人長期照顧中心(養護型),三民區,高雄市三民區建工路445號2樓,07-3806101,21000
高雄市私立信心好老人長期照顧中心(養護型),三民區,高雄市三民區自由一路63號(3.4樓),07-3137999,21000
財團法人高雄市私立濟眾老人養護中心,楠梓區,高雄市楠梓區加昌路298號1.3.4.5.7.8樓,07-3639437,21000
高雄市私立吉仁養護中心,楠梓區,高雄市楠梓區清平街51巷2號1-3樓,07-3531408,20000
高雄市私立小護士老人長期照顧中心(養護型),楠梓區,高雄市楠梓區後昌路837巷11號1-2樓,07-3610037,21000
高雄市私立怡泉老人長期照顧中心（養護型）,楠梓區,高雄市楠梓區盛昌街255巷100號1-4樓,07-3685535,21000
高雄市私立健安老人養護中心,楠梓區,高雄市楠梓區東昌街17號1樓,07-3012490,21000
高雄市私立新健安老人養護中心,楠梓區,高雄市楠梓區東昌街19號1樓,07-3012490,21000
高雄市私立新禾康養護之家,楠梓區,高雄市楠梓區惠民路210號1樓,07-3644351,26000
高雄市私立崇恩老人長期照顧中心（養護型）,楠梓區,高雄市楠梓區立仁街131、133號5樓,07-3539619,25000
高雄市私立崇祐老人長期照顧中心（養護型）,楠梓區,高雄市楠梓區常德路317巷9弄29號,07-3516260,22000
高雄市私立德民老人長期照顧中心(養護型),楠梓區,高雄市楠梓區德民路797號,07-3626281,21000
高雄市政府社會局仁愛之家,燕巢區,高雄市燕巢區深水里深水路1號,07-6151439,20000
高雄市私立康欣老人長期照顧中心(養護型),燕巢區,高雄市燕巢區安東街188號1F,07-6141273,25000
財團法人濟興長青基金會附設高雄市私立濟興長青園老人長期照顧中心（長期照護型）,燕巢區,高雄市燕巢區橫山路72號,07-6155548,25000
高雄市私立天恩老人長期照顧中心(養護型),仁武區,高雄市仁武區仁勇路95號1-2樓,07-7334967,21000
高雄市私立雪美老人長期照顧中心（養護型）,仁武區,高雄市仁武區赤山里澄仁西街239號1樓,07-3727063,23000
高雄市私立信愛老人養護中心,仁武區,高雄市仁武區仁慈里仁慈路85巷18號1-2樓,07-7353687,20000
高雄市明山慈安居老人養護中心,仁武區,高雄市仁武區考潭里成功路5號1-3樓,07-3722268,24000
高雄市私立大灣家園老人長期照顧中心(養護型),仁武區,高雄市仁武區仁孝路450巷15號1-4樓,07-3746110,21000
高雄市私立鑫安大老人長期照顧中心(養護型),仁武區,高雄市仁武區北屋六街57號2樓,07-3736369,21000
高雄市私立鑫安泰老人長期照顧中心(養護型),仁武區,高雄市仁武區北屋六街57號1樓,07-3736635,21000
高雄市私立橋頭老人養護中心,橋頭區,高雄市橋頭區林里公厝北路46號1樓,07-6128510,18000
高雄市私立泰和老人養護中心,橋頭區,高雄市橋頭區橋頭里成功路97號1-4樓,07-6111128,21000
高雄市私立橋頭社區老人養護中心,橋頭區,高雄市橋頭區成功路8號1-5樓,07-6111108,19000
高雄市私立萬冠老人長期照顧中心（養護型）,橋頭區,高雄市橋頭區甲樹路1208號1至2樓,07-6130032,19000
高雄市私立菩心老人長期照顧中心（養護型）,大社區,高雄市大社區學府路196號1樓,07-3561393,19000
高雄市私立安康養護之家,左營區,高雄市左營區曾子路211號1樓,07-3459055,29000
高雄市私立新吉祥養護之家,左營區,高雄市左營區民族一路1167號3、4樓,07-3422435,20000
高雄市私立新如意老人長期照顧中心(養護型),左營區,高雄市左營區民族一路1167號1、2樓,07-3101731,20000
高雄市私立同心老人長期照顧中心(養護型),左營區,高雄市左營區大中一路430號1-4樓,07-3101122,23000
高雄市私立長群老人長期照顧中心(養護型),左營區,高雄市左營區重忠路155號1-5樓,07-3427181,22000
高雄市私立慈祐老人長期照顧中心(養護型),左營區,高雄市左營區左營大路554巷7號1-3樓,07-5889035,21000
高雄市私立日光樂家老人長期照顧中心（養護型）,左營區,高雄市左營區博愛四路250號2樓,07-3482999,24000
高雄市私立偉恩老人長期照顧中心(養護型),左營區,高雄市左營區文恩路200號1-3F,07-3508037,25000
高雄市私立福心老人長期照顧中心(養護型),左營區,高雄市左營區左營大路56號之1,07-5818877,23000
高雄市私立大福心老人長期照顧中心(養護型),左營區,高雄市左營區左營大路56號,07-5818877,23000
高雄市私立小福心老人長期照顧中心(養護型),左營區,高雄市左營區左營大路56號2樓,07-5818877,21000
高雄市私立冠仁老人長期照顧中心(養護型),左營區,高雄市左營區文上路116號,07-3411265,21000
高雄市私立睿祥老人長期照顧中心(養護型),左營區,高雄市左營區孔營路1號1樓,07-5880101,21000
高雄市私立日賀老人長期照顧中心(養護型),左營區,高雄市左營區博愛四路250號1樓,07-3482999,21000
高雄市私立睿城老人長期照顧中心(養護型),左營區,高雄市左營區孔營路1號2樓,07-5880197,25000
高雄市私立容安老人長期照顧中心(養護型),左營區,高雄市左營區文敬路28號,07-3501247,23000
高雄市私立文宗老人長期照顧中心（養護型）,鼓山區,高雄市鼓山區文忠路123號1-2樓,07-5530506,22000
高雄市私立華榮養護中心,鼓山區,高雄市鼓山區華榮路610號,07-5535111,23000
高雄市私立欣榮總養護中心,鼓山區,高雄市鼓山區葆禎路163號,07-5818501,23000
高雄市私立榮恩老人長期照顧中心(養護型),鼓山區,高雄市鼓山區葆禎路161號,07-5818501,23000
高雄市私立冠安老人養護中心,鼓山區,高雄市鼓山區美術北三路260號,07-5523031,23000
高雄市私立孝星老人養護中心,鼓山區,高雄市鼓山區鼓山三路108-18號,07-5814818,18000
高雄市私立良安老人養護中心,鼓山區,高雄市鼓山區永德街141號2樓,07-5857740,23000
高雄市私立高安老人長期照顧中心(養護型),鼓山區,高雄市鼓山區美術北三路262號,07-5523201,23000
高雄市私立永安老人長期照顧中心(養護型),鼓山區,高雄市鼓山區永德街143號,07-5857740,23000
高雄市私立九如老人長期照顧中心（養護型）,鼓山區,高雄市鼓山區九如四路1034號1-6樓,07-5215820,26000
高雄市私立仁心老人長期照顧中心(養護型),鼓山區,高雄市鼓山區九如四路637號1樓,07-5336363,21000
高雄市私立新仁心老人長期照顧中心(養護型),鼓山區,高雄市鼓山區九如四路637號2樓,07-5336363,21000
財團法人高雄市私立永安老人養護中心,大寮區,高雄市大寮區過溪里濃中街12號1-5樓,07-7881876,21000
財團法人高雄市私立張簡秋風社會福利慈善事業基金會附設高雄市私立松喬老人養護中心,大寮區,高雄市大寮區內坑里內坑路77之36號B1-3樓,07-7830789,21000
高雄市私立福安老人養護中心,大寮區,高雄市大寮區中正路3之1號 1樓,07-7816000,21000
高雄市私立慈安老人長期照顧中心（養護型）,大寮區,高雄市大寮區中正路3之48號1樓,07-7818088,21000
高雄市私立真安老人長期照顧中心(養護型),大寮區,高雄市大寮區八德路570號1樓(含夾層),07-7027779,23000
高雄市私立博仁老人長期照顧中心（長期照護型）,大寮區,高雄市大寮區九和路23、25號1至2樓,07-6518879,23000
高雄市私立成大老人養護中心,鳳山區,高雄市鳳山區南京路387巷2之1-2號1-2樓,07-7663348,18000
高雄市私立文清老人養護中心,鳳山區,高雄市鳳山區文清街125巷16號1-2樓,07-7801658,21000
高雄市私立康齡老人養護中心,鳳山區,高雄市鳳山區中山東路559號1-3樓,07-7025536,20000
高雄市私立信展老人養護中心,鳳山區,高雄市鳳山區光復路6號1-4樓,07-7482383,25000
高雄市私立安祥老人長期照顧中心(養護型),鳳山區,高雄市鳳山區南京路49巷6號1樓,07-7663456,18000
高雄市私立長松老人養護中心,鳳山區,高雄市鳳山區五權路97號1-3樓,07-7460957,21000
高雄市私立松霖老人長期照顧中心（養護型）,鳳山區,高雄市鳳山區經武路156號1-4樓,07-7425829,21000
高雄市私立鳳新老人養護中心,鳳山區,高雄市鳳山區南京路391巷1號1-2樓,07-7663348,15000
高雄市私立真善美老人長期照顧中心（養護型）,鳳山區,高雄市鳳山區經武路85之21號1-4樓,07-7482383,21000
高雄市私立青園老人長期照顧中心（養護型）,鳳山區,高雄市鳳山區鳳頂路56號1-3樓,07-7969090,18000
高雄市私立快樂家族老人長期照顧中心（養護型）,鳳山區,高雄市鳳山區經武路85之20號1-3樓,07-7475675,21000
高雄市私立宏亞老人長期照顧中心(養護型),鳳山區,高雄市鳳山區五甲三路12號1-5樓,07-8211218,21000
高雄市私立新長松老人長期照顧中心（養護型）,鳳山區,高雄市鳳山區中山西路70之1號1至2樓,07-7409781,19000
高雄市私立親育園老人養護中心,林園區,高雄市林園區鳳林路3段127號1樓,07-6466535,18000
高雄市私立祐德老人長期照顧中心（養護型）,林園區,高雄市林園區鳳林路2段700號1至3樓,07-6427307,21000
財團法人高雄市私立宏仁老人長期照顧中心（養護型）,鳥松區,高雄市鳥松區神農路971巷96號1-2樓,07-6512656,27000
高雄市私立圓山老人養護中心,鳥松區,高雄市鳥松區圓山路27號1樓,07-3709676,21000
高雄市私立慈善園老人養護中心,鳥松區,高雄市鳥松區大同路2之115號1樓,07-7334113,21000
高雄市私立健康老人長期照顧中心（養護型),鳥松區,高雄市鳥松區鳥松里東山路橫一巷3號1樓,07-7321129,20000
高雄市私立大同老人長期照顧中心（養護型）,鳥松區,高雄市鳥松區坔埔里大同路8號1樓,07-7336188,21000
高雄市私立欣緣老人長期照顧中心（養護型）,鳥松區,高雄市鳥松區神農路150巷81號,07-7313030,21000
高雄市私立千葉老人長期照顧中心(養護型),大樹區,高雄市大樹區姑山里姑山路19之1號1樓,07-6565119,20000
高雄市私立新樂園老人長期照顧中心（養護型）,大樹區,高雄市大樹區姑山里姑山路19之2號1樓,07-6565119,21000
高雄市私立欣家老人長期照顧中心(養護型),大樹區,高雄市大樹區中山路26號,07-6521155,21000
財團法人高雄市私立萃文書院社會福利慈善事業基金會附設萃文佛恩養護院,內門區,高雄市內門區觀亭里番子路16之10號B1-4樓,07-6672888,20000
高雄市私立博愛老人長期照顧中心（養護型）,岡山區,高雄市岡山區前鋒里阿公店路3段226號1樓,07-6251515,21000
財團法人高雄市私立淨覺社會福利基金會附設高雄市私立淨覺老人養護中心,阿蓮區,高雄市阿蓮區復安里9鄰復安95之70號B1-2樓,07-6333720,21000
高雄市私立愛欣老人養護中心,美濃區,高雄市美濃區中圳里泰安路249巷2之1號1樓,07-6813958,21000
高雄市私立吉園老人養護中心,美濃區,高雄市美濃區吉和里四維50之1號1樓,07-6832379,18000
高雄市私立新效堂老人養護中心,美濃區,高雄市美濃區獅山里獅山街35號1樓,07-6850588,20000
高雄市私立惠心老人養護之家,美濃區,高雄市美濃區祿興里中興路1段49巷5號1樓,07-6850826,21000
財團法人高雄市私立愛心老人養護中心,美濃區,高雄市美濃區泰安路249巷2之2號1-3樓,07-6813958,20000
財團法人高雄市私立日新老人長期照顧中心（養護型）,美濃區,高雄市美濃區德興里忠孝路1段219號,07-6815800,21000
高雄市私立康乃心老人長期照顧中心(養護型),美濃區,高雄市美濃區中圳里泰中路207號,07-6822033,21000
高雄市私立怡園老人養護中心,湖內區,高雄市湖內區中山路1段402巷8弄35號1-2樓,07-6935989,16000
高雄市私立湖內老人養護之家,湖內區,高雄市湖內區中正路1段315巷22號1樓,07-6990472,23000
高雄市私立慈慧老人長期照顧中心（養護型）,湖內區,高雄市湖內區田尾里中山路1段496巷300號1樓,07-6938505,23000
高雄市私立永新老人長期照顧中心(養護型),路竹區,高雄市路竹區中華路436號,07-6961085,25000
高雄市私立快樂家園老人長期照顧中心（養護型）,路竹區,高雄市路竹區竹南里竹南街93號1樓,07-6960460,21000
財團法人高雄市私立聖和社會福利慈善事業基金會附設高雄市私立聖和老人長期照顧中心（養護型）,路竹區,高雄市路竹區鴨寮里保民路99巷36號1-2樓,07-6071466,23000
高雄市私立慈心老人養護中心,旗山區,高雄市旗山區旗甲路1段215巷21號1-2樓,07-6613077,21000
財團法人高雄市私立合信興老人養護中心,旗山區,高雄市旗山區旗南三路112之2號1-4樓,07-6661236,16000
財團法人高雄市私立寶光建德社會福利慈善事業基金會附設高雄市私立彌勒家園老人長期照顧中心(養護型),六龜區,高雄市六龜區新寮里新威175-6號,07-6871708,24000
高雄市私立宏鑫老人長期照顧中心（養護型）,梓官區,高雄市梓官區公館路139號1至3樓,07-6103630,18000
財團法人台灣省私立台南仁愛之家（新都養護所）,南區,臺南市南區新都路346號,06-2630431,24600
財團法人台灣省私立台南仁愛之家（成功養護中心）,北區,臺南市北區成功路238巷11號,06-2252115,22000
財團法人台灣省私立台南仁愛之家（康寧園安養中心）,北區,臺南市北區公園路321巷8號,06-2254670,20000
財團法人台灣省私立普門仁愛之家,麻豆區,臺南市麻豆區南勢里關帝廟23之15號,06-5722384,21000
財團法人樹河社會福利基金會附設臺灣省私立悠然山莊安養中心,關廟區,臺南市關廟區下湖里關新路一段85號,06-5954188,29800
臺南市私立祐健老人長期照顧中心(養護型),中西區,臺南市中西區開山路90號2、3樓,06-2260303,27000
臺南市私立慈心老人長期照顧中心(養護型),中西區,臺南市中西區臨安路1段193號1~2樓,06-2586999,27000
臺南市私立慈恩老人長期照顧中心(養護型),中西區,臺南市中西區臨安路1段193號3-4樓,06-2501843,23000
臺南市私立慈善老人長期照顧中心(養護型),中西區,臺南市中西區府前一街9巷12弄77、79號,06-2994591,23000
財團法人台南市基督教青年會社會福利慈善事業基金會附設台南市私立臨安老人養護中心,中西區,臺南市中西區民權路3段370號,06-3583000,31500
財團法人台南市私立林澄輝社會福利慈善事業基金會附設臺南市私立璐德老人長期照顧中心(養護型),中西區,臺南市中西區西和路100號,06-3588670,23000
台南市私立長佳老人養護中心,東區,臺南市東區崇學路230巷59號2、3樓,06-2676812,27000
台南市私立佑惠老人養護中心,東區,臺南市東區自由路2段176號1-2樓,06-2695457,22000
台南市私立愛惠老人養護中心,東區,臺南市東區東門路2段236號,06-2684254,18000
台南市私立崇善老人養護中心,東區,臺南市東區崇善路1089巷57號,06-3364911,18000
台南市私立中華老人養護中心,東區,臺南市東區崇善路741號,06-3356320,23000
台南市私立平安老人養護中心,東區,臺南市東區崇明二十街23號,06-2602050,21000
台南市私立千慈老人養護中心,東區,臺南市東區崇道路139號,06-2906407,22000
台南市私立同德老人養護中心,東區,臺南市東區崇德二十六街7號,06-2697970,40000
臺南市私立有德老人長期照顧中心(養護型),東區,臺南市東區自由路1段61號,06-3352768,23000
臺南市私立臻德老人長期照顧中心(養護型),東區,臺南市東區仁和路208巷27號,06-2696828,24000
臺南市私立福康老人長期照顧中心(養護型),南區,臺南市南區大同路2段640巷35弄3、5號,06-2908005,23000
台南市私立瑞園老人長期照顧中心(養護型),南區,臺南市南區三官路205號,06-2652911,23000
財團法人台灣省台南市天主教仁愛修女會附設台南市私立老吾老養護中心,南區,臺南市南區金華路1段530巷19號,06-2643837,28000
臺南市私立國民老人長期照顧中心(養護型),南區,臺南市南區國民路60巷9號,06-2891829,25000
台南市私立明興老人養護中心,南區,臺南市南區明興路320號2-3樓,06-2622377,28000
台南市私立健康老人長期照顧中心(養護型),南區,臺南市南區永南街20號,06-2614516,25000
台南市私立長生老人養護中心,南區,臺南市南區南功街36號,06-2916098,25000
臺南市私立樂活屋老人長期照顧中心(養護型),南區,臺南市南區新興路173號,06-2640777,23000
臺南市私立惠慈老人長期照顧中心(養護型),南區,臺南市南區公英一街37巷35號、41號,06-3368789,25000
臺南市私立康得老人長期照顧中心(養護型),南區,臺南市南區公英一街37巷26號,06-2670027,23000
臺南市私立森川老人長期照顧中心(養護型),南區,臺南市南區喜東里12鄰明興路735巷31號,06-2626009,23000
臺南市私立永承老人長期照顧中心(養護型),南區,臺南市南區永成路2段827巷25弄28號1、2樓,06-2965588,23000
台南市私立慈愛老人養護中心,北區,臺南市北區北園街89號3樓,06-2088818,28000
台南市私立聖功老人養護中心,北區,臺南市北區文成路785號,06-2591081,22000
臺南市私立佳和老人長期照顧中心(養護型),北區,臺南市北區北成路350號,06-2826717,25000
臺南市私立宜家老人長期照顧中心(養護型),北區,臺南市北區成功路246號,06-2230861,23000
臺南市私立正覺老人長期照顧中心(養護型),北區,臺南市北區正覺街47號,06-2525882,23000
臺南市私立詮恩老人長期照顧中心(養護型),北區,臺南市北區公園路952巷42號,06-2520670,21000
臺南市政府社會局委託財團法人樹河社會福利基金會經營臺南市悠然綠園安養暨長期照顧中心,安平區,臺南市安平區建平路2號,06-2957168,29800
財團法人台南市私立吾愛吾家養護中心,安平區,臺南市安平區永華12街27巷10號,06-2952763,27000
台南市私立馨心老人養護中心,安平區,臺南市安平區安平路162號,06-2507032,25000
台南市私立和豐園老人長期照顧中心(養護型),安南區,臺南市安南區國安街196、198號,06-2800959,25000
台南市私立同安老人長期照顧中心(養護型),安南區,臺南市安南區同安路17巷18號,06-2466618,22000
台南市私立佑康老人長期照顧中心(養護型),安南區,臺南市安南區安通路4段119巷24號,06-2569757,23000
臺南市私立佳欣老人長期照顧中心(養護型),安南區,臺南市安南區公學路4段54巷117號,06-2872816,18000
台南市私立麗新老人養護中心,安南區,臺南市安南區公學路4段54巷90號,06-2873078,23000
臺南市私立愛和老人長期照顧中心(養護型),安南區,臺南市安南區海佃路3段273號,06-2560884,19500
臺南市私立安和老人長期照顧中心(養護型),安南區,臺南市安南區長和路4段283號,06-2558385,27000
臺南市私立美麗園老人長期照顧中心(養護型),安南區,臺南市安南區北汕尾三路532號,06-2571212,24000
臺南市私立裕康美老人長期照顧中心(養護型),安南區,臺南市安南區北汕尾三路536號,06-2571212,25000
臺南市私立怡安老人長期照顧中心(養護型),安南區,臺南市安南區怡安路二段516巷86號1樓,06-2455566,23000
臺南市私立東園老人長期照顧中心(養護型) ,安南區,臺南市安南區學東里公學路六段360號,06-2873663,23000
臺南市私立順安老人長期照顧中心(養護型),安南區,臺南市安南區怡安路二段516巷86號2樓,06-2459966,24000
臺南市私立萬安老人長期照顧中心(養護型),新營區,臺南市新營區中營里東山中路57號,06-6330899,25000
臺南市私立萬泰老人長期照顧中心(養護型),新營區,臺南市新營區中營里東山中路55號,06-6330899,25000
臺南市私立欣園老人長期照顧中心(養護型),新營區,臺南市新營區大宏里綠川路8號,06-6337830,23000
臺南市私立合信老人長期照顧中心(養護型),新營區,臺南市新營區新南里明清街14號、14-1號、14-2號、14-3號、14-4號,06-6572886,22000
臺南市私立泰安老人養護中心,新營區,臺南市新營區中營里東山三路69之1號,06-6352262,20000
臺南市私立美安老人養護中心,新營區,臺南市新營區中營里東山三路69號,06-6352262,23000
臺南市私立新營老人長期照顧中心(養護型),新營區,臺南市新營區太南里舊廍2之10號及2之11號,06-6581517,23000
臺南市私立太子宮老人養護中心,新營區,臺南市新營區太南里太子宮316-10及316-11號,06-6525528,22000
臺南市私立佑安老人長期照顧中心(養護型),新營區,臺南市新營區長榮路一段530巷16號,06-6325999,25000
財團法人臺南市私立麻豆社會福利慈善事業基金會附設臺南市私立麻豆老人養護中心,麻豆區,臺南市麻豆區中民里謝厝寮101號之35,06-5710979,24000
臺南市私立清心園老人長期照顧中心(養護型),麻豆區,臺南市麻豆區港尾里客子寮1-27號,06-5700010,25000
臺南市私立宜心園老人長期照顧中心(養護型),麻豆區,臺南市麻豆區港尾里客子寮1-26號,06-5700011,23000
臺南市私立公園老人長期照顧中心(養護型),佳里區,臺南市佳里區六安里佳北路165及165-1號,06-7212829,22000
臺南市私立宏瑋養護院,佳里區,臺南市佳里區建南里四維二街223號,06-7230265,23000
臺南市私立宏佳老人養護院,佳里區,臺南市佳里區建南里四維二街221號,06-7230265,23000
臺南市私立宏祐老人養護之家,佳里區,臺南市佳里區海澄里番子寮45號之16,06-7215700,23000
臺南市私立宏丞老人養護之家,佳里區,臺南市佳里區海澄里番子寮45號之15,06-7215800,23000
臺南市私立康泰老人長期照顧中心(養護型),佳里區,臺南市佳里區建南里佳南路799號,06-7222955,25000
臺南市私立康健老人長期照顧中心(養護型),佳里區,臺南市佳里區建南里佳南路797號,06-7222977,23000
臺南市私立天寶老人長期照顧中心(養護型),新化區,臺南市新化區唪口里唪口201號,06-5982336,21000
臺南市私立松柏養護之家,新化區,臺南市新化區全興里竹子腳136之1號,06-5980662,20000
財團法人臺南市私立佛教觀音村社會福利慈善事業基金會附設臺南市私立觀音村老人養護靜修院,新化區,臺南市新化區那拔里那拔林1-10號,06-5912800,23000
財團法人臺灣省臺南市臺灣首廟天壇附設臺南市私立天壇老人養護中心,新化區,臺南市新化區知義里新和庄22號,06-5800111,26500
臺南市私立安心養護之家,善化區,臺南市善化區昌隆里東勢寮1之17號,06-5835388,22000
臺南市私立健樂老人長期照顧中心(養護型),學甲區,臺南市學甲區豐和里美和4之51號,06-7830536,18000
臺南市私立樂健心邨老人長期照顧中心(養護型),學甲區,臺南市學甲區豐和里美和4之53號,06-7830536,18000
臺南市私立學甲老人養護中心,學甲區,臺南市學甲區秀昌里煥昌140-52號,06-7820353,18000
臺南市私立馨園老人長期照顧中心(養護型),學甲區,臺南市學甲區新達里中山路98號,06-7834077,20000
臺南市私立存德老人養護中心,後壁區,臺南市後壁區菁豐里1之4號,06-6623588,21000
臺南市私立廣恩老人養護中心,東山區,臺南市東山區三榮里木柵60號之1,06-6801785,18000
臺南市私立和平老人長期照顧中心(養護型),下營區,臺南市下營區仁里里工業街2巷19號,06-6898268,22000
臺南市政府社會局委託財團法人高雄市私立萃文書院社會福利慈善事業基金會經營臺南市官田老人養護中心,官田區,臺南市官田區隆本里中華路一段325號,06-5790749,25000
臺南市私立康慈老人長期照顧中心(養護型),大內區,臺南市大內區頭社里頭社83之16號,06-5761878,23000
臺南市私立藤澤養護之家,西港區,臺南市西港區劉厝里十三鄰劉厝110之3號,06-7952180,25000
臺南市私立春柏老人長期照顧中心(養護型),西港區,臺南市西港區永樂里溪埔寮162號,06-7955397,28000
臺南市私立家園老人養護中心,西港區,臺南市西港區慶安里中山路479號,06-7955282,21000
臺南市私立為仁老人長期照顧中心(養護型),西港區,臺南市西港區慶安里中州89號,06-7956402,20000
臺南市私立藤龍老人長期照顧中心(養護型),西港區,臺南市西港區劉厝里劉厝8之15號,06-7958138,22000
臺南市私立順園老人長期照顧中心（養護型）,將軍區,臺南市將軍區長榮里長榮66-12號,06-7941286,25000
臺南市私立喜園老人長期照顧中心（養護型）,將軍區,臺南市將軍區長榮里長榮66-11號,06-7941286,25000
臺南市私立善園老人長期照顧中心（養護型）,將軍區,臺南市將軍區長榮里長榮66-13號,06-7941286,25000
臺南市私立惠群老人長期照顧中心(養護型),仁德區,臺南市仁德區成功里成功一街106號,06-2684356,20000
臺南市私立慈安老人長期照顧中心(養護型),仁德區,臺南市仁德區成功里成功二街200號,06-2905728,27000
臺南市私立迦南山莊老人長期照顧中心(養護型),仁德區,臺南市仁德區仁德里裕忠三街85號,06-2884303,23000
臺南市私立尚美老人養護中心,仁德區,臺南市仁德區後壁里中正路2段187巷12、16號,06-2496576,22000
臺南市私立長祐老人長期照顧中心(養護型),仁德區,臺南市仁德區中洲里中生街252巷52號,06-2666425,27000
臺南市私立仁田老人長期照顧中心(養護型),仁德區,臺南市仁德區仁德里文華路三段460號,06-2797977,23000
臺南市私立恩欣老人長期照顧中心(養護型),仁德區,臺南市仁德區仁德里19鄰文華路三段116號,06-2895999,23000
臺南市私立媽廟老人養護院,歸仁區,臺南市歸仁區媽廟里和順路一段336巷16號,06-2719123,25000
臺南市私立歸仁愛心養護中心,歸仁區,臺南市歸仁區七甲里中正北路2段417巷118號,06-2396618,23000
臺南市私立友廉養護中心,永康區,臺南市永康區六合里六合路55之1號,06-2020707,21000
臺南市私立保健老人長期照顧中心（養護型）,永康區,臺南市永康區五王里五福街19、21、23號,06-2028884,21000
臺南市私立南臺養護中心,永康區,臺南市永康區尚頂里南臺街65號,06-2425538,25000
臺南市私立永康慈善老人養護之家,永康區,臺南市永康區龍潭里龍國街562號,06-2015439,20000
臺南市私立維康老人養護中心,永康區,臺南市永康區大橋里大橋五街151號,06-3027655,25000
臺南市私立和春老人長期照顧中心(養護型),永康區,臺南市永康區五王里振興路98號,06-3025908,23000
臺南市私立康鈞老人長期照顧中心(養護型),永康區,臺南市永康區二王里8鄰中山南路858號,06-2020816,27000
臺南市私立樺馨苑老人長期照顧中心(養護型),永康區,臺南市永康區網寮里大灣路942巷641弄75號,06-2719998,23000
臺南市私立陽光老人長期照顧中心(養護型),永康區,臺南市永康區二王里47鄰中山東路25號1樓,06-3020288,23000
臺南市私立宜仁老人長期照顧中心(養護型),永康區,臺南市永康區中山北路385巷3弄4號,06-2019321,23000
財團法人台灣省私立菩提仁愛之家,大里區,臺中市大里區大明路55號,04-24837148,27500
臺中市立仁愛之家,北屯區,臺中市北屯區軍功里006鄰軍功路二段490號,04-22392074,20000
財團法人臺中市私立長生老人長期照護中心,北區,臺中市北區錦祥里001鄰北屯路26號9、10、12樓(不含12樓之9及12樓之10),04-22302033,30000
財團法人台中市順天宮輔順將軍廟附設私立輔順仁愛之家,北區,臺中市北區賴村里015鄰德化街362號,04-22030602,18000
財團法人中華基督教福音信義傳道會附設台中市私立信義老人養護中心,東勢區,臺中市東勢區泰昌里002鄰東崎路五段425號,04-25888225,26000
財團法人臺中市私立永耕社會福利基金會附設臺中市私立永耕老人養護中心,南區,臺中市南區工學里011鄰文心南路766號,04-22611698,28500
財團法人臺灣省私立永信社會福利基金會附設臺中市私立松柏園老人養護中心,大甲區,臺中市大甲區頂店里002鄰成功路319號,04-26760180,30800
財團法人臺中市私立普濟社會福利慈善事業基金會附設臺中市私立普濟老人長期照顧中心(養護型),龍井區,臺中市龍井區東海里006鄰遠東街209巷2號,04-26522166,26000
財團法人臺中市私立公老坪社會福利慈善事業基金會附設臺中市私立田園老人養護中心,豐原區,臺中市豐原區南嵩里014鄰水源路坪頂巷8-7號,04-25220123,27500
財團法人臺中市私立廣達社會福利慈善事業基金會附設臺中市私立廣達老人長期照顧中心(養護型),外埔區,臺中市外埔區六分里009鄰月眉西路398巷100號,04-26836161,27500
財團法人臺中市私立好耆老人長期照顧中心(養護型),梧棲區,臺中市梧棲區南簡里027鄰星美路197號,04-26630197,34000
台中市私立麗安老人長期照顧中心(養護型),中區,臺中市中區中華里024鄰成功路341號3、4樓,04-22250345,33000
臺中市私立麗新長期照顧中心(養護型),中區,臺中市中區中華里024鄰成功路341號2樓,04-22250345,27000
臺中市私立惠群老人長期照顧中心(養護型),東區,臺中市東區干城里004鄰自由路三段276號5樓,04-22130557,26000
臺中市私立德康老人長期照顧中心(養護型),東區,臺中市東區東勢里021鄰玉皇街63號3~5樓,04-22154171,28500
臺中市私立敬馨老人長期照顧中心(養護型),東區,臺中市東區旱溪里019鄰自由路三段314巷12號,04-22116802,24000
臺中市私立福祿貝老老人養護中心,西區,臺中市西區和龍里014鄰梅川東路二段11號 ,04-22026788,23000
台中市私立貝思特老人長期照顧中心(養護型),西區,臺中市西區和龍里014鄰梅川東路二段11號 ,04-22026788,23000
台中市私立大墩老人養護中心,西區,臺中市西區公正里011鄰向上路一段451號3~6樓,04-24735983 ,25000
台中市私立祥和老人養護中心,南區,臺中市南區樹義里014鄰大慶街一段242號,04-22605999,26000
臺中市私立沐陽306老人長期照顧中心(養護型),南區,臺中市南區長榮里010鄰復興路三段304號,04-22222859,26000
臺中市私立永和老人養護中心,北區,臺中市北區淡溝里016鄰西屯路一段250巷1號,04-22030609,23000
台中市私立信望愛老人養護中心,北區,臺中市北區育德里002鄰美德街211號2樓~6樓,04-22031097 ,26000
台中市私立慈恩老人養護中心,北區,臺中市北區賴村里015鄰健行路518巷15弄2號,04-22039778,28000
臺中市私立杏林老人長期照顧中心(養護型),西屯區,臺中市西屯區福雅里024鄰西屯路三段153-5號3樓~6樓,04-24618119,28000
台中市私立玫園老人長期照顧中心(養護型),西屯區,臺中市西屯區福順路66號,04-24623902 ,24000
臺中市私立長青老人養護中心,西屯區,臺中市西屯區何南里022鄰大墩二十街116、118號,04-23107959,28300
臺中市私立安健老人養護中心,西屯區,臺中市西屯區何明里006鄰太原路一段25號,04-23119033,30000
台中市私立善心園老人長期照顧中心(養護型),西屯區,臺中市西屯區林厝里009鄰福雅路550號,04-24635886,26000
台中市私立至善園老人養護中心,南屯區,臺中市南屯區南屯里021鄰五福街205號,04-23852299,26000
臺中市私立葳采老人長期照顧中心(養護型),南屯區,臺中市南屯區春社里033鄰永春南路188巷71號,04-23807788,26000
臺中市私立真善美老人長期照顧中心(養護型),北屯區,臺中市北屯區三和里005鄰東山路一段50巷63號,04-24363201 ,26000
台中市私立惠恩老人養護中心,北屯區,臺中市北屯區仁美里027鄰崇德18路213號,04-24223627,26000
臺中市私立同心居老人養護中心,北屯區,臺中市北屯區仁和里023鄰崇德十路二段266號,04-24225880 ,23100
臺中市私立長生老人養護中心,北屯區,臺中市北屯區仁美里001鄰崇德路三段942號,04-24226226,30000
臺中市私立欣德老人長期照顧中心(養護型),北屯區,臺中市北屯區平德里012鄰青島路三段13號,04-22316611,28000
台中市私立永安老人長期照顧中心(養護型),北屯區,臺中市北屯區三光里012鄰北平路四段199號,04-22389266,26000
台中市私立嘉民老人長期照顧中心(養護型),北屯區,臺中市北屯區和平里023鄰環中東路二段255號3樓,04-24370892,27000
臺中市私立昇柏老人養護中心,烏日區,臺中市烏日區學田里001鄰學田路732號,04-23381438,22000
臺中市私立泰安老人長期照顧中心(養護型),烏日區,臺中市烏日區九德里025鄰中山路一段548號8、9樓,04-23380707,27445
臺中市私立福碩老人長期照顧中心(養護型),烏日區,臺中市烏日區烏日里020鄰一德街1號,04-23386608,32000
臺中市私立清心老人養護中心,大里區,臺中市大里區大元里001鄰內元路158號,04-24864567,33000
台中市私立全家老人養護中心,大里區,臺中市大里區大元里022鄰東里路77號1、2樓,04-24180505,21000
臺中市私立健民老人長期照顧中心(養護型),霧峰區,臺中市霧峰區萬豐里007鄰中正路129號1樓,04-23328287,23000
臺中市私立皇家老人養護中心,沙鹿區,臺中市沙鹿區埔子里016鄰正義路97巷30號,04-26336666,22000
臺中市私立康祥老人長期照顧中心(養護型),沙鹿區,臺中市沙鹿區三鹿里023鄰保成六街90號,04-26367669,26000
臺中市私立育沛老人長期照顧中心(養護型),梧棲區,臺中市梧棲區草湳里21鄰自強三街96巷8號,04-26392378,26000
臺中市私立健德老人養護中心,大雅區,臺中市大雅區六寶里002鄰光復路2-5號,04-25604290,23100
臺中市私立孝親園老人長期照顧中心(養護型),潭子區,臺中市潭子區大豐里012鄰雅豐街197巷8號,04-25345412,26000
臺中市私立松群老人養護中心,神岡區,臺中市神岡區圳前里004鄰神圳路82號,04-25625627,26000
臺中市私立豐原長生老人養護中心,豐原區,臺中市豐原區南村里017鄰水源路407號,04-25151111,22000
臺中市私立健安老人養護中心,豐原區,臺中市豐原區南田里011鄰南田街41號,04-25255777,30000
臺中市私立太夫老人長期照顧中心(養護型),豐原區,臺中市豐原區東湳里005鄰角潭路二段119巷22號1樓,04-25232048,27500
臺中市私立豐盛老人長期照顧中心,豐原區,臺中市豐原區南陽里027鄰圓環東路241號,04-25122371,24000
臺中市私立愛老郎老人長期照顧中心(養護型),豐原區,臺中市豐原區東湳里002鄰三豐路2段396巷69號,04-25293499,30000
臺中市私立常春老人養護中心,外埔區,臺中市外埔區三崁里008鄰三崁路72之3號 ,04-26839990,26000
臺中市私立安宜田園老人長期照顧中心(養護型),外埔區,臺中市外埔區鐵山里017鄰長生路425號,04-26838781,27000
臺中市私立永和老人長期照顧中心(養護型),大甲區,臺中市大甲區文武里001鄰育英路128號,04-26870788,21000
財團法人台灣省私立桃園仁愛之家,楊梅區,桃園市楊梅區高榮里14鄰梅獅路539巷3號,03-4643385,23000
財團法人台灣省私立桃園仁愛之家附設成功養護中心,桃園區,桃園市桃園區成功路2段99號,03-3394151,22000
桃園市私立長安老人長期照顧中心(養護型),桃園區,桃園市桃園區延平路42號2樓,03-3758059,25000
桃園市私立建元老人長期照顧中心(養護型),桃園區,桃園市桃園區大豐路56號1-2樓、60、62號1樓,03-3631755,28000
桃園市私立逸園老人長期照顧中心(養護型),桃園區,桃園市桃園區民富五街5、7號1、2樓、5之2號3樓,03-3319523,26000
桃園市私立慈家老人長期照顧中心(養護型),桃園區,桃園市桃園區新生路165號6樓之1,03-3331155,26000
桃園市私立慈庭老人長期照顧中心(長期照護型),桃園區,桃園市桃園區新生路165號6樓之2,03-3319379,27000
桃園市私立逸慈老人長期照顧中心(養護型) ,桃園區,桃園市桃園區寶慶路201號,03-3015051,25000
桃園市私立台大老人長期照顧中心(養護型),桃園區,桃園市桃園區經國路242號4樓,03-3555036,28000
桃園市私立康全老人長期照顧中心(養護型),桃園區,桃園市桃園區樹林四街26號1、2樓(B1),03-3615577,27000
桃園市私立家悅老人長期照顧中心(養護型),桃園區,桃園市桃園區新生路165號5樓之2,03-3342139,25000
桃園市私立康益老人長期照顧中心(養護型),桃園區,桃園市桃園區新生路165號5樓之1,03-3347259,27000
桃園市私立陽光老人長期照顧中心（養護型）,桃園區,桃園市桃園區國際路一段264號1樓,03-3618728,32000
桃園市私立同安老人長期照顧中心(養護型),桃園區,桃園市桃園區新埔七街101號1樓,03-3552546,25000
桃園市私立宜家老人長期照顧中心(養護型),桃園區,桃園市桃園區經國路242號2樓,03-3568881,28000
桃園市私立康健老人長期照顧中心(養護型),桃園區,桃園市桃園區新埔七街101號2、3樓,03-2552638,25000
桃園市私立吉安老人長期照顧中心(養護型),桃園區,桃園市桃園區朝陽街二段26、28號,03-3345631,27000
桃園市私立恩澤老人長期照顧中心(養護型),桃園區,桃園市桃園區中央街26號1樓,03-3333636,25500
桃園市私立陽光空氣水老人長期照顧中心(養護型),桃園區,桃園市桃園區中正路720之7號8樓,03-3588966,29800
桃園市私立民享老人長期照顧中心(養護型),桃園區,桃園市桃園區民生路290號,03-3350800,26000
桃園市私立禾安老人長期照顧中心(養護型),桃園區,桃園市桃園區武陵里9鄰朝陽街2段26、28號2樓,03-3329899,26000
桃園市私立莊敬園老人長期照顧中心(養護型),桃園區,桃園市桃園區莊敬路1段375號3樓,03-3250813,26000
桃園市私立慈恩老人長期照顧中心(養護型),中壢區,桃園市中壢區自立里自立三街二巷16、18號(1-3F),03-4558858,30000
桃園市私立長祐老人長期照顧中心(養護型),中壢區,桃園市中壢區環中東路188號、190號2樓,03-4356337,30000
桃園市私立東陽老人長期照顧中心(養護型),中壢區,桃園市中壢區內壢興仁路二段152之2號,03-2850571,27000
財團法人桃園市私立甡光社會福利基金會附設桃園市私立甡光老人長期照顧中心(養護型),平鎮區,桃園市平鎮區南平路二段516巷99號(1-3F),03-4643380,28000
財團法人桃園市私立國宏老人長期照顧中心（養護型）,平鎮區,桃園市平鎮區北貴里20鄰關爺東路19-5號(1-2F、B1),03-4582977,26000
桃園市私立瑞生老人長期照顧中心(養護型),平鎮區,桃園市平鎮區金陵路五段32之1號.32之2號(1-2F),03-4502966,27000
桃園市私立平鎮老人長期照顧中心(養護型),平鎮區,桃園市平鎮區平南里35鄰開封街77號,03-4398361,26000
桃園市私立八德老人長期照顧中心(養護型),八德區,桃園市八德區大智里介壽路一段758巷8號,03-2182128,27000
桃園市私立明新老人長期照顧中心(養護型),楊梅區,桃園市楊梅區裕成南路313號、315號1樓,03-4314349,25000
桃園市私立富佑老人長期照顧中心(養護型),楊梅區,桃園市楊梅區富豐南路418號,03-4721972,26000
桃園市私立雲鵬老人長期照顧中心(養護型),楊梅區,桃園市楊梅區中山北路一段319號,03-4881300,30000
桃園市私立眾生老人長期照顧中心(養護型),大溪區,桃園市大溪區福安里順和路65號,03-3887167,25000
桃園市私立大溪老人長期照顧中心(養護型),大溪區,桃園市大溪區慈湖路85號4樓,03-3870119,26000
桃園市蘆竹區老人長期照顧中心(養護型),蘆竹區,桃園市蘆竹區山腳里5鄰黃帝街168號,03-3245369,25000
桃園市私立台北老人長期照顧中心（養護型）,蘆竹區,桃園市蘆竹區坑子里13鄰八德一路263號,03-3246538,26000
桃園市私立友愛老人長期照顧中心（養護型）,蘆竹區,桃園市蘆竹區新興街273巷63號、65號1樓,03-3027510,27000
桃園市私立馨禾老人長期照顧中心（養護型）,蘆竹區,桃園市蘆竹區文中路一段108號,03-3782533,39500
桃園市私立大園老人長期照顧中心（養護型）,大園區,桃園市大園區圳頭里6鄰圳頭路342號,03-3864499,25000
桃園市私立長青老人長期照顧中心（養護型）,大園區,桃園市大園區田心里華興路1段81號,03-3861559,25000
桃園市私立祥安老人長期照顧中心（養護型）,龜山區,桃園市龜山區文化三路78巷30弄26號,03-3975862,25000
桃園市私立慈慧老人長期照顧中心（養護型）,龜山區,桃園市龜山區萬壽路二段345號,03-3194922,25000
桃園市私立愈健老人長期照顧中心(養護型),龜山區,桃園市龜山區大湖里文三三街5巷5號,03-3181946,28000
桃園市私立吳木同老人長期照顧中心（養護型）,龜山區,桃園市龜山區大坑里17鄰陳厝坑路395號,03-3161021,26000
桃園市私立松林老人長期照顧中心（長期照護型）,龜山區,桃園市龜山區復興北路6巷42號,03-3288158,30000
桃園市私立友緣老人長期照顧中心（養護型）,龜山區,桃園市龜山區萬壽路2段345號3樓,03-3195969,26000
桃園市私立宥恩老人長期照顧中心（養護型）,龜山區,桃園市龜山區萬壽路2段343號3樓,03-3191665,24000
桃園市私立真愛老人長期照顧中心（養護型）,龜山區,桃園市龜山區萬壽路一段163號3樓之1、之2,02-82000148,26000
財團法人桃園市私立怡德老人長期照顧中心(養護型),龍潭區,桃園市龍潭區中正路三林段619巷105號(1-4F、B1),03-4092468,25000
桃園市私立佳心老人長期照顧中心(養護型),龍潭區,桃園市龍潭區中興路211巷30號(1-3F),03-4995577,24000
桃園市私立厚德老人長期照顧中心(養護型),龍潭區,桃園市龍潭區高原里高原路239號(1-2F),03-4718866,29000
桃園市私立龍祥老人長期照顧中心(長期照護型),龍潭區,桃園市龍潭區高平里高楊南路97-1號1F,03-4719302,28000
桃園市私立慈航老人長期照顧中心(養護型),龍潭區,桃園市龍潭區富林里中正路三林段619巷3號(1-2F),03-4097532,25000
桃園市私立庭園老人長期照顧中心（養護型）,龍潭區,桃園市龍潭區南龍路42號1F,03-4991812,28000
財團法人桃園市私立佳安老人長期照顧中心(養護型),龍潭區,桃園市龍潭區佳安西路4巷101號(1-6F),03-4111111,26000
桃園市私立愛心老人長期照顧中心(養護型),龍潭區,桃園市龍潭區龍元路45號1樓,03-4990650,24000
桃園市私立慈園老人長期照顧中心(養護型),龍潭區,桃園市龍潭區武中路558號,03-4700766,25000
財團法人天下為公社會福利基金會附設桃園市私立龍潭老人長期照顧中心(養護型),龍潭區,桃園市龍潭區高原里8鄰南坑路3-5號1-4樓,03-4116889,23600
桃園市私立欣園老人長期照顧中心(養護型),新屋區,桃園市新屋區頭洲里梅高路三段八號1F-2F,03-4207286,21000
桃園市私立龍德老人長期照顧中心（養護型）,新屋區,桃園市新屋區三民路265巷68號1F,03-4970361,27000
桃園市私立博愛老人長期照顧中心(養護型),新屋區,桃園市新屋區東明里上庄一路136號(1-4樓),03-4775570,26000
桃園市私立友德老人長期照顧中心(養護型),蘆竹區,桃園市蘆竹區新興街273巷63、65號2樓,03-3029320,26000
桃園市私立少同老人長期照顧中心(養護型),中壢區,桃園市中壢區中正路四段594號8樓、596號8、9樓,03-4081905,26000
桃園市私立坤宏老人長期照顧中心(養護型),桃園區,桃園市桃園區大樹里2鄰樹仁三街218號,03-3670286,28000
桃園市私立海森老人長期照顧中心(養護型),蘆竹區,桃園市蘆竹區蘆興里3鄰蘆興南路403巷26號,03-3228886,30000
桃園市私立安生老人長期照顧中心(長期照護型),中壢區,桃園市中壢區內定八街286號,03-4510116,36000
桃園市私立泰安老人長期照顧中心(養護型),新屋區,桃園市新屋區永安里中山西路三段603巷36號,03-4861967,25000
臺北市私立上美老人長期照顧中心(養護型),士林區,臺北市士林區重慶北路4段162號1-4樓,02-28122366,30000
臺北市至善老人安養護中心,士林區,臺北市士林區永福里001鄰仰德大道2段2巷50號,02-28832666 ,30000
臺北市私立璞園老人長期照顧中心(養護型),士林區,臺北市士林區富光里010鄰葫蘆街33號4、5、6樓,02-28163696,30000
臺北市私立祐心老人長期照顧中心(養護型),士林區,臺北市士林區名山里 009鄰至誠路1段305巷3弄14號1-2樓,02-28310432,30000
臺北市私立永青老人長期照顧中心(養護型),士林區,臺北市士林區天壽里003鄰中山北路6段427巷8號1~4樓,02-28761908,30000
臺北市私立祇福老人養護所,士林區,臺北市士林區三玉里016鄰忠誠路2段10巷11、13號1~2樓,02-28317713,30000
臺北市私立荷園老人長期照顧中心(養護型),士林區,臺北市士林區富光里010鄰葫蘆街33號2~3樓,02-28163696,30000
臺北市私立柏安老人養護所,士林區,臺北市士林區蘭雅里 024鄰 中山北路6段290巷52、54號1樓,02-28333536,30000
臺北市私立松園老人長期照顧中心(養護型),士林區,臺北市士林區蘭雅里 020鄰德行東路61巷1、2、3號1~2樓,02-88662097,30000
臺北市私立天玉老人長期照顧中心(長期照護型),士林區,臺北市士林區天玉街38巷18弄18號1-6樓,02-28720239,30000
臺北市私立慧光老人養護所,大同區,臺北市大同區星明里 014鄰寧夏路32 號5樓,02-25582275,30000
臺北市私立敦煌老人長期照顧中心(養護型),大同區,臺北市大同區重慶里014鄰敦煌路80巷3號及3-1號1樓,02-25945133,30000
臺北市私立祥安尊榮老人長期照顧中心(養護型),大同區,臺北市大同區國順里008鄰延平北路3段4號2樓,02-25860098,30000
臺北市私立永安老人養護所,大同區,臺北市大同區老師里008鄰重慶北路3段284號2~4樓、286號1~4樓,02-25980197,30000
臺北市私立德寶老人養護所,大同區,臺北市大同區建明里002鄰長安西路78巷4弄11號1~4樓,02-25522062,30000
臺北市私立仁家老人長期照顧中心(養護型),大同區,臺北市大同區延平里001鄰甘州街55號5~6樓,02-25530799,31000
臺北市私立建順老人長期照顧中心(養護型),大同區,臺北市大同區延平里001鄰甘州街55號3樓,02-25520199,26000
臺北市私立建興老人長期照顧中心(養護型),大同區,臺北市大同區延平里001鄰甘州街55號2樓,02-25520199,26000
臺北市私立晉安老人長期照顧中心(養護型),大同區,臺北市大同區至聖里032鄰重慶北路3段175、177號1~4樓,02-25982301,28000
臺北市私立祥寶尊榮老人長期照顧中心(養護型),大同區,臺北市大同區建泰里019鄰太原路97巷4、6號,02-25501118,35000
臺北市私立天恩老人長期照顧中心(養護型),大安區,臺北市大安區龍門里008鄰新生南路3段7-4號、9-4號、9-5號,02-23620457,31000
臺北市私立新常安老人長期照顧中心(養護型),大安區,臺北市大安區黎孝里006鄰安居街46巷14號1~3樓及芳和里 013鄰 和平東路3段228巷39號2樓,02-23775448,28000
臺北市私立健全老人長期照顧中心(養護型),大安區,臺北市大安區錦華里001鄰金山南路2段152號2、3、5、6樓,02-23943265~6,36000
臺北市私立嘉恩老人長期照顧中心(養護型),大安區,臺北市大安區黎孝里008鄰安居街27號4、6樓及29號4、5樓,02-27371330,30500
臺北市私立康寧老人長期照顧中心(養護型),大安區,臺北市大安區光信里020鄰仁愛路4段300巷20弄15號2樓、17號2樓,02-27053835,32000
臺北市私立上上老人養護所,大安區,臺北市大安區仁慈里009鄰復興南路1段279巷14、16號1樓,02-27032223,28500
臺北市私立晨欣老人長期照顧中心(養護型),中山區,臺北市中山區集英里006鄰中山北路2段96巷19號3樓,02-25212226,30000
臺北市私立松湛園老人養護所,中山區,臺北市中山區聚盛里003鄰錦州街4巷1號2樓、2樓之1,02-25652281,27000
臺北市私立松青園老人養護所,中山區,臺北市中山區民安里021鄰民生西路30號2樓、2樓之1~4,02-25110903,27000
臺北市私立法泉老人長期照顧中心(養護型),中山區,臺北市中山區朱崙里012鄰八德路2段251號2樓,02-87731706,29500
臺北市私立龍江老人長期照顧中心(養護型),中山區,臺北市中山區力行里007鄰長安東路1段63號4樓,02-25672208,35000
臺北市私立仁群老人長期照顧中心(養護型),中山區,臺北市中山區下埤里019鄰民族東路512巷14號1~2樓、16號2樓,02-25013369,26250
臺北市私立群仁老人長期照顧中心(養護型),中山區,臺北市中山區下埤里019鄰民族東路512巷14號3~5樓,02-25010048,26250
臺北市私立福成老人長期照顧中心(養護型),中山區,臺北市中山區新福里004鄰松江路374、380、382號4樓,02-25982507,30000
臺北市私立福喜老人長期照顧中心(養護型),中山區,臺北市中山區松江路374、380、382號7樓,02-25919087,30000
臺北市私立仁泰老人長期照顧中心(養護型),中正區,臺北市中正區三愛里001鄰連雲街3號1、3樓、3之4號及三愛里001鄰新生南路1段124之3號5樓,02-33931662,28000
臺北市私立博愛老人長期照顧中心(養護型),中正區,臺北市中正區富水里001鄰汀州路3段56號2樓,02-23671050 ,30000
臺北市私立明德老人長期照顧中心(養護型),中正區,臺北市中正區永昌里014鄰詔安街220巷2、4號1樓,02-23090381,30000
臺北市私立大園老人長期照顧中心(養護型),中正區,臺北市中正區三愛里001鄰新生南路1段124之3號1~4樓,02-33931661,27000
臺北市私立銀髮族老人養護所,內湖區,臺北市內湖區成功路2段488號2~5樓、490號2樓、4樓,02-27926006,30000
臺北市私立童音老人長期照顧中心(養護型),內湖區,臺北市內湖區葫洲里004鄰民權東路6段280巷19弄1、3、5、7號1樓,02-26345131,29000
臺北市私立湖濱老人長期照顧中心(養護型),內湖區,臺北市內湖區湖濱里010鄰內湖路2段179巷58、60號1樓,02-27933081,26000
臺北市私立瑞安老人長期照顧中(養護型),內湖區,臺北市內湖區紫陽里002鄰成功路3段88、90、92號2樓、76巷9號2樓,02-27925292,28000
臺北市私立祥家老人養護所,內湖區,臺北市內湖區湖濱里026鄰內湖路2段253巷1弄1.3號1-2樓,02-27922281,29250
臺北市私立文德老人長期照顧中心(養護型),內湖區,臺北市內湖區紫陽里011鄰陽光街70-2、70-3、72、72-1號1樓,02-26581303,30000
臺北市私立景安老人長期照顧中心(養護型),文山區,臺北市文山區景慶里001鄰溪口街1巷5號1~2樓,02-29325698,28000
臺北市私立心慈老人養護所,文山區,臺北市文山區興業里022鄰辛亥路5段120-1號1~4樓,02-29314730,26250
臺北市私立慧誠老人長期照顧中心(養護型),文山區,臺北市文山區木柵里025鄰木柵路2段163、165號1~5樓,02-29392222,28000
臺北市私立蓮馨老人長期照顧中心(養護型),文山區,臺北市文山區萬和街6號8樓,02-82300373,28000
臺北市私立慈安老人長期照顧中心(養護型),文山區,臺北市文山區萬有里001鄰興隆路1段2、4號1~4樓,02-29337745,28000
臺北市私立美安老人長期照顧中心(養護型),文山區,臺北市文山區景慶里001鄰溪口街1巷5號3-4樓,02-29316388,28000
臺北市私立景興老人長期照顧中心(養護型),文山區,臺北市文山區景行里021鄰景興路222號3樓,02-29349412,26000
臺北市私立三園老人長期照顧中心(養護型),文山區,臺北市文山區景行里002鄰車前路12號3-4樓,02-29321147,32000
臺北市私立吉祥老人長期照顧中心(養護型),文山區,臺北市文山區木柵里004鄰木柵路3段85巷8弄4-1、4-2號1樓及2、2-1、2-2、4、4-1、4-2號2樓,02-22343511,28000
臺北市文山老人養護中心,文山區,臺北市文山區興豐里016鄰興隆路2段95巷8號3~6樓,02-89313190,30000
臺北市兆如老人安養護中心,文山區,臺北市文山區政大里005鄰政大二街129號,02-86616365,25000
臺北市私立慧華老人長期照顧中心(養護型),文山區,臺北市文山區興隆路2段154巷11號1樓,02-29356272,28000
臺北市私立尊暉老人長期照顧中心(養護型),北投區,臺北市北投區石牌路2段343巷17號1~2樓,02-28761997,30000
臺北市私立賢暉老人長期照顧中心(養護型),北投區,臺北市北投區石牌路2段315巷34弄14、16號1樓,02-28710770,30000
臺北市私立高德老人長期照顧中心(養護型),北投區,臺北市北投區磺港路156號1~3樓,02-28982418,30000
臺北市私立陽明山老人長期照顧中心(養護型),北投區,臺北市北投區湖山里006鄰紗帽路116號,02-28615006,33000
臺北市私立全家老人長期照顧中心(養護型),北投區,臺北市北投區永和里007鄰行義路96巷1號1~2樓,02-28761692,32330
臺北市私立倚青園老人長期照顧中心(養護型),北投區,臺北市北投區永明里008鄰義理街63巷4弄7、11之1~3號1樓,02-28283533,31000
臺北市私立榮健老人長期照顧中心(養護型),北投區,臺北市北投區建民里016鄰文林北路94巷5弄13號1~2樓、15號2樓,02-28216113,32000
臺北市私立全寶老人長期照顧中心(養護型),北投區,臺北市北投區永欣里014鄰石牌路2段315巷16弄2、2-1號1樓,02-28710793,29000
臺北市私立義行老人長期照顧中心(養護型),北投區,臺北市北投區永和里001鄰石牌路2段357巷1號4~6樓,02-28767880,30000
臺北市私立建民老人長期照顧中心(養護型),北投區,臺北市北投區文林里019鄰建民路22、24、26、26之1號1樓,02-28250799,34000
臺北市私立榮祥老人長期照顧中心(養護型),北投區,臺北市北投區文林里019鄰文林北路166巷5弄2號1~2樓、4號1樓,02-28213709,32000
臺北市私立北投老人長期照顧中心(養護型),北投區,臺北市北投區公館路231巷20號1樓,02-28937412,26500
臺北市私立全泰老人長期照顧中心(養護型),北投區,臺北市北投區永和里006鄰行義路105號1~2樓,02-28747739,36000
臺北市私立聖心老人養護所,北投區,臺北市北投區稻香路321號1樓,02-28913890,26500
臺北市私立精英國際老人長期照顧中心(養護型),北投區,臺北市北投區關渡里003鄰關渡路60、62之1號1樓,02-28582701,30000
臺北市私立怡靜老人長期照顧中心(養護型),北投區,臺北市北投區吉利里002鄰致遠二路96巷3弄1、3號1樓,02-28200437,25000
臺北市私立貴族老人長期照顧中心(養護型),北投區,臺北市北投區大同里013鄰大業路452巷2號2~5樓,02-28965555,39000
臺北市私立行義老人長期照顧中心(養護型),北投區,臺北市北投區永和里001鄰石牌路2段357巷1號1~3樓,02-28729599,30000
臺北市私立豪門老人長期照顧中心(養護型),北投區,臺北市北投區大同里013鄰大業路452巷2號6~9樓,02-28954492,33000
臺北市私立安安老人長期照顧中心(養護型),北投區,臺北市北投區奇岩里003鄰公館路194、196號1樓,02-28953298,25000
臺北市私立奇里岸老人長期照顧中心(養護型),北投區,臺北市北投區立農里013鄰西安街2段245號1.2樓,02-28275139,26500
財團法人台灣基督教道生院附設臺北市私立道生院老人長期照顧中心(養護型),北投區,臺北市北投區秀山里002鄰中和街錫安巷112號1.2樓及地下1樓,02-28936161,35000
臺北市立浩然敬老院,北投區,臺北市北投區關渡里016鄰知行路75號,02-28581081,0
臺北市私立同德老人長期照顧中心(養護型),北投區,臺北市北投區榮華里004鄰明德路306號1-7樓,02-28281328,40000
臺北市私立群英老人長期照顧中心(養護型),松山區,臺北市松山區仁愛里013鄰敦化南路1段7號4樓,02-25791400,35000
臺北市私立台大老人長期照顧中心(養護型),松山區,臺北市松山區仁愛里013鄰敦化南路1段7號4樓之1,02-25792816,35000
臺北市私立仁仁老人長期照顧中心(養護型),松山區,臺北市松山區新聚里003鄰南京東路5段356號2樓,02-27659900,32000
臺北市私立康壯老人長期照顧中心(養護型),松山區,臺北市松山區吉祥里001鄰八德路4段203、205號1、2樓,02-27686697,31500
臺北市私立倚青苑老人養護所,信義區,臺北市信義區永春里002鄰中坡北路21號1~2樓、23號2樓,02-27477232,31500
臺北市私立康庭老人養護所,信義區,臺北市信義區安康里017鄰信義路6段15巷16號1樓,02-23460684,32000
臺北市私立福安老人長期照顧中心(養護型),南港區,臺北市南港區萬福里 007鄰 玉成街140巷21、23號2樓,02-27850584,30000
臺北市私立葉媽媽老人長期照顧中心(養護型),萬華區,臺北市萬華區錦德里012鄰西園路2段243之13號1~4樓,02-23329986,30000
財團法人天主教失智老人社會福利基金會附設臺北市私立聖若瑟失智老人養護中心,萬華區,臺北市萬華區保德里001鄰德昌街125巷11號1~4樓、13號1樓,"
02-23046602",36000
臺北市私立葉爸爸老人長期照顧中心(養護型),萬華區,臺北市萬華區錦德里012鄰西園路2段243之14號1~4樓,02-23329985,30000
臺北市私立中山老人長期照顧中心(養護型),萬華區,臺北市萬華區菜園里001鄰峨眉街124號、124之1號1樓,02-23759590,30000
財團法人臺北市私立恆安老人長期照顧中心(長期照護型),萬華區,臺北市萬華區騰雲里004鄰水源路187號,02-23327973,30000
財團法人臺北市私立愛愛院,萬華區,臺北市萬華區糖廍里006鄰大理街175巷27號,02-23060493,36000
臺北市私立軒儀老人長期照顧中心(養護型),萬華區,臺北市萬華區華江里028鄰和平西路3段384號1樓,02-23088661,32000
財團法人台灣省私立健順養護中心,深坑區,新北市深坑區昇高里王軍寮 9 號 ,02-2662-2499,29000
新北市私立三禾老人長期照顧中心(長期照護型),三芝區,新北市三芝區四棧橋53之11號2樓、3樓,02-26363222,29000
新北市私立仁惠老人長期照顧中心(養護型),三芝區,新北市三芝區四棧橋53之11號,02-26365222,29000
新北市私立長勤老人長期照顧中心（養護型),三芝區,新北市三芝區長勤街63號、63 號2樓、63號3樓、63號4樓,02-26366887,29000
財團法人臺灣基督長老教會雙連教會附設新北市私立雙連安養中心,三芝區,新北市三芝區後厝里北勢子22-17號,02-26365999,29000
新北市私立鴻澄老人長期照顧中心(養護型),三重區,新北市三重區三和路2段30號3樓、3樓之1、3樓之2、3樓之3、3樓之4,02-29791130,29000
新北市私立大德老人長期照顧中心(養護型),三重區,新北市三重區三和路4段103-1號4樓,02-22870889,29000
新北市私立心侑老人長期照顧中心(養護型),三重區,新北市三重區三和路4段95之1號2樓、3樓,02-22819099,32000
新北市私立幸福老人長期照顧中心(養護型),三重區,新北市三重區中興北街54號5樓,02-85122666,29000
新北市私立豐禾老人長期照顧中心(養護型),三重區,新北市三重區成功路79號1樓-5樓,02-89720166,35000
新北市私立靜園老人長期照顧中心(養護型),三重區,新北市三重區成功路97號10樓,02-89731580,35000
新北市私立今光愛心老人養護中心,三重區,新北市三重區成功路97號2樓,02-29768888,29000
新北市私立大安老人長期照顧中心（養護型）,三重區,新北市三重區自強路4段110號3樓,02-89819911,25000
新北市私立祐安老人長期照顧中心（養護型）,三重區,新北市三重區自強路4段6號3樓,02-22866311,21000
新北市私立沐心老人長期照顧中心（養護型）,三重區,新北市三重區重新路5段635之2號、635之2號2樓、635之2號3樓,02-29990737,20000
新北市私立圓滿老人長期照顧中心（養護型）,三重區,新北市三重區重新路5段639號10樓、639之1號10樓,02-29998867,20000
新北市私立蓮愛老人養護中心,三重區,新北市三重區溪尾街41號2樓,02-29896770,31000
新北市私立安泰老人長期照顧中心（養護型）,三重區,新北市三重區福德北路4號3樓、4樓,02-29737632,29000
新北市私立長園老人長期照顧中心(養護型),三重區,新北市三重區龍門路1號3樓、3樓之1,02-29860063,31500
新北市私立慈恩老人長期照顧中心(養護型),三峽區,新北市三峽區大利路2號(1、2層)、4號、6號2樓,02-26738500,23000
新北市私立安康老人長期照顧中心（養護型）,三峽區,新北市三峽區中華路22號3樓之3,02-86719488,29000
新北市私立清安養老院老人長期照顧中心(養護型),三峽區,新北市三峽區介壽路1段278號3樓,02-86722809,35000
新北市私立清平養老院老人長期照顧中心（養護型）,三峽區,新北市三峽區介壽路1段278號4樓,02-86725678,29500
新北市私立清心養老院老人長期照顧中心（養護型）,三峽區,新北市三峽區介壽路1段278號5樓,02-86721354,29500
新北市私立清氣養老院老人長期照顧中心（養護型）,三峽區,新北市三峽區介壽路1段278號6樓,02-86721354,29500
新北市私立清福養老院老人長期照顧中心（養護型）,三峽區,新北市三峽區介壽路1段278號7樓,02-86725678,29500
新北市私立清景養老院老人長期照顧中心(養護型),三峽區,新北市三峽區介壽路1段280號3樓,02-86725678,29500
新北市私立清風養老院老人長期照顧中心(養護型),三峽區,新北市三峽區介壽路1段280號4樓,02-86725678,29500
新北市私立清照養老院老人長期照顧中心(養護型),三峽區,新北市三峽區介壽路1段280號5樓,02-86725678,29500
新北市私立清日養老院老人長期照顧中心(養護型),三峽區,新北市三峽區介壽路1段280號6樓,02-86722937,29500
新北市私立清春養老院老人長期照顧中心（養護型）,三峽區,新北市三峽區介壽路1段280號7樓,02-86726395,29500
新北市私立清涼養老院老人長期照顧中心(養護型),三峽區,新北市三峽區介壽路1段286號3樓,02-86725678,29500
新北市私立清清養老院老人長期照顧中心(養護型),三峽區,新北市三峽區介壽路1段286號4樓,02-86725678,29500
新北市私立東海老人長期照顧中心(養護型),新店區,新北市新店區寶興路37號4樓,02-29143333,26000
新北市私立清水養老院老人長期照顧中心(養護型),三峽區,新北市三峽區介壽路1段286號5樓,02-86725678,29500
新北市私立清泉養老院老人長期照顧中心 (養護型),三峽區,新北市三峽區介壽路1段286號6樓,02-86725678,29500
新北市私立清山養老院老人長期照顧中心（養護型）,三峽區,新北市三峽區介壽路1段286號7樓,02-86725678,29500
新北市私立衡安老人長期照顧中心（養護型）,三峽區,新北市三峽區文化路59巷7號之2、8樓之2,02-86711558,26000
新北市私立安新老人長期照顧中心（養護型）,三峽區,新北市三峽區民生街83號4樓、85號4樓、85號5樓,02-86710158,29000
新北市私立主恩福老人長期照顧中心(養護型),三峽區,新北市三峽區和平街65-5、65-7號、65-4號2樓之1,02-86713896,29000
新北市私立廣春老人長期照顧中心(養護型),三峽區,新北市三峽區復興路176號2樓,02-86715396,20000
新北市私立鴻欣老人長期照顧中心（養護型）,三峽區,新北市三峽區復興路176號3樓,02-86715396,22000
新北市私立智理老人長期照顧中心（養護型）,三峽區,新北市三峽區復興路1號3樓之1、3樓之2、3樓之3,02-26741007,29000
新北市私立同心老人長期照顧中心(養護型),土城區,新北市土城區中央路4段127號9-10樓、9-11樓之1,02-22679979,30000
新北市私立博楷老人長期照顧中心（養護型）,土城區,新北市土城區中央路4段84號2-3樓、86巷2號1-3樓、88號1-3樓、90號3樓,02-22672952,37500
新北市私立博群老人長期照顧中心（養護型）,土城區,新北市土城區中央路4段84號4-5樓、86巷2號4-5樓、88號4-5樓、90號4-5樓,02-22677356,37500
新北市私立連馨老人長期照顧中心（養護型）,土城區,新北市土城區中正路2號3樓,02-22635701,29000
新北市私立銀享家園老人長期照顧中心(養護型),土城區,新北市土城區日新街33巷8號1樓、2樓,02-22658289,29000
新北市私立銀享樂園老人長期照顧中心(養護型),土城區,新北市土城區日新街33巷8號3樓、4樓,02-22658299,29000
新北市私立迦勒老人長期照顧中心（養護型）,土城區,新北市土城區延壽路9號(1樓、2樓),02-82621966,29000
新北市私立大眾老人養護中心,土城區,新北市土城區清水路114號2樓,02-22602532,29000
新北市私立永泰老人養護中心,中和區,新北市中和區中山路2段101號1樓-4樓,02-22409933,23000
新北市私立雙和老人長期照顧中心（養護型）,中和區,新北市中和區中山路2段133號2樓,02-82458280,26000
新北市私立慈美老人養護中心,中和區,新北市中和區中山路2段315巷2號6樓,02-22467727,29000
新北市私立合樂老人長期照顧中心（養護型）,中和區,新北市中和區中山路2段327巷11弄17號3樓,02-82458130,30000
新北市私立和樂老人長期照顧中心（養護型）,中和區,新北市中和區中山路2段327巷11弄17號5樓,02-82458131,30000
新北市私立闔樂老人長期照顧中心(養護型),中和區,新北市中和區中山路2段327巷1號2樓,02-22422502,32000
新北市私立忠祥老人長期照顧中心（養護型）,中和區,新北市中和區中山路2段327巷1號4樓,02-22473386,36000
新北市私立逢海老人長期照顧中心（養護型）,中和區,新北市中和區中山路2段327巷1號5樓,02-22451915,22000
新北市私立逢源老人長期照顧中心(養護型）,中和區,新北市中和區中山路2段327巷9號3樓,02-22450139,29000
新北市私立福泰老人老人長期照顧中心（養護型）,中和區,新北市中和區中山路2段371號4樓,02-22233325,20000
新北市私立中原老人長期照顧中心（養護型）,中和區,新北市中和區中山路2段560號6樓、6樓之1,02-22286187,36000
新北市私立一德老人長期照顧中心（養護型）,中和區,新北市中和區中山路2段560號7樓,02-22286655,30000
新北市私立皇佳老人長期照顧中心（養護型）,中和區,新北市中和區中山路2段562號10樓,02-22286187,36000
新北市私立怡安老人長期照顧中心（養護型）,中和區,新北市中和區中正路770號5樓,02-82213542,24000
新北市私立怡和老人長期照顧中心（養護型）,中和區,新北市中和區中正路772號5樓,02-82213540,35000
新北市私立慈和老人長期照顧中心（養護型）,中和區,新北市中和區中正路909號2樓,02-22212393,25000
新北市私立慈安老人長期照顧中心（養護型）,中和區,新北市中和區中正路909號3樓,02-22212393,25000
新北市私立慈鴻老人長期照顧中心(養護型),中和區,新北市中和區中正路909號4樓,02-22588868,25000
新北市私立双慈老人長期照顧中心（養護型）,中和區,新北市中和區中正路909號5樓,02-82286093,25000
新北市私立禾藝老人長期照顧中心（養護型）,中和區,新北市中和區中正路909號7樓,02-22226268,25000
新北市私立連城老人長期照顧中心（養護型）,中和區,新北市中和區板南路335號4樓、337號4樓,02-22479996,32000
新北市私立美馨老人長期照顧中心（養護型）,中和區,新北市中和區板南路337號5樓,02-22451915,20000
新北市私立安怡老人長期照顧中心(養護型),中和區,新北市中和區建一路87號3樓,02-22287623,35000
新北市私立永順老人養護中心,中和區,新北市中和區建康路2號5樓、2之2號5樓,02-32340828,35000
新北市私立展欣老人長期照顧中心（養護型）,中和區,新北市中和區員山路506號2樓,02-22267373,28000
新北市私立享居老人長期照顧中心（養護型）,中和區,新北市中和區員山路506號6樓,02-22250966,27000
新北市私立仁安老人長期照顧中心（養護型）,中和區,新北市中和區連城路164號2樓,02-22481617,32000
新北市私立仁和老人長期照顧中心（養護型）,中和區,新北市中和區連城路164號4樓、164之2號4樓,02-22481607,32000
新北市私立祥逸老人長期照顧中心（養護型）,中和區,新北市中和區景平路726-8號、726-6號2樓之1、726-6號2樓之2、726-6號2樓之3,02-82453559,29000
新北市私立宜安老人長期照顧中心（養護型）,中和區,新北市中和區景安路48號7樓,02-22409304,29000
新北市私立御林園老人長期照顧中心（養護型）,中和區,新北市中和區圓通路367巷33弄6號,02-22492772,33000
新北市私立中山老人長期照顧中心（養護型）,中和區,新北市中和區橋安街6號2、3樓,02-22438323,20000
新北市私立五股愛心老人長期照顧中心（養護型）,五股區,新北市五股區成泰路2段5號、5號2樓、5號3樓、5號4樓、7號2樓、7號3樓、7號4樓、9號2樓、9號3樓、9號4樓,02-22936066,29000
新北市私立再芳老人長期照顧中心（養護型）,五股區,新北市五股區成泰路4段10號3樓之2,02-22923158,26000
新北市私立明泰老人長期照顧中心（養護型）,五股區,新北市五股區成泰路4段10號3樓之3,02-22930992,29000
新北市私立松永老人長期照顧中心（養護型）,永和區,新北市永和區中正路455號8樓、8樓之1、8樓之2、8樓之3、8樓之4、8樓之5、8樓之6,02-29237197,28000
新北市私立寶貝爹娘老人長期照顧中心（養護型）,永和區,新北市永和區中正路588號4樓,02-29230306,30000
新北市私立宏德老人長期照顧中心（養護型）,永和區,新北市永和區永平路81巷2號(2層)、4號(2層)、12號2樓(2層),02-29231336,32000
新北市私立育昇老人長期照顧中心（養護型）,永和區,新北市永和區永和路1段57號（5至8層）,02-29261199,32000
新北市私立永恩老人長期照顧中心（養護型）,永和區,新北市永和區永和路2段209號4樓,02-29283862,27000
新北市私立永康老人長期照顧中心（養護型）,永和區,新北市永和區永和路2段209號5樓,02-29283862,20000
新北市私立寶安老人長期照顧心（養護型）,永和區,新北市永和區竹林路73號2樓、3樓,02-89281517,31000
新北市私立福和老人長期照顧中心(養護型),永和區,新北市永和區福和路160號2樓,02-89277187,32000
財團法人恆安社會福利慈善事業基金會附設新北市私立大同老人長期照顧中心(養護型),汐止區,新北市汐止區大同路3段425號3樓、4樓,02-86489888,32200
財團法人中華文化社會福利事業基金會附設新北市私立翠柏新村老人安養中心,汐止區,新北市汐止區永春一路5號,02-2645-1001,36000
新北市私立德馨老人長期照顧中心(養護型),汐止區,新北市汐止區和平街8號5樓,02-26471288,28000
新北市私立健銓老人長期照顧中心(養護型),汐止區,新北市汐止區和平街8號四樓,02-26422467,28000
新北市私立祥恩老人養護中心,汐止區,新北市汐止區青山路15號1樓-3樓,02-86424959,38000
新北市私立祥和老人養護中心,汐止區,新北市汐止區青山路15號4樓、4樓之1、5樓,02-26499691,27000
新北市私立安濟老人長期照顧中心(養護型),汐止區,新北市汐止區福德一路351巷11弄18號2樓,02-26951800,32000
新北市私立百睿老人長期照顧中心(養護型),汐止區,新北市汐止區福德路38號10樓、10樓之1~10樓之7,02-86933112,31000
新北市私立百齡家園老人長期照顧中心（養護型）,汐止區,新北市汐止區福德路38號11樓、11樓之1、11樓之2、11樓之3、11樓之4、11樓之5、11樓之6、11樓之7,02-86931606,31000
新北市私立幸福家園老人長期照顧中心(養護型),汐止區,新北市汐止區福德路38號12樓、12樓之1、12樓之2、12樓之3、12樓之4、12樓之5、12樓之6,02-26926777,35000
新北市私立好家園老人長期照顧中心（養護型）,汐止區,新北市汐止區福德路38號2樓、2樓之1,02-26926777,35000
新北市私立新陽光老人長期照顧中心(養護型),汐止區,新北市汐止區福德路38號4樓、4樓之1,02-26933978,30000
新北市私立天愛老人長期照顧中心(養護型),汐止區,新北市汐止區福德路38號8樓、8樓之1、8樓之2、8樓之3、8樓之4、8樓之5、8樓之6、8樓之7,02-26932239,30000
新北市私立銀泰老人長期照顧中心（養護型）,汐止區,新北市汐止區福德路38號6樓之1、之2、之3、之4、之5、之6,02-26934386,33000
新北市私立美麗家園老人長期照顧心（養護型）,汐止區,新北市汐止區福德路38號7樓、7樓之1、7樓之2、7樓之3、7樓之4、7樓之5、7樓之6、7樓之7,02-26926111,35000
新北市私立百寧老人長期照顧中心(養護型),汐止區,新北市汐止區福德路38號9樓、38號9樓之1、38號9樓之2、38號9樓之3、38號9樓之4、38號9樓之5、38號9樓之6、38號9樓之7,02-86931901,30000
新北市私立東宜老人長期照顧中心（養護型）,板橋區,新北市板橋區大觀路2段159號之1、159號之2、159號之3,02-22755050,20000
新北市私立寶樺老人長期照顧中心（養護型）,板橋區,新北市板橋區大觀路3段201、201-1、201-2、201-3號,02-26820680,29000
新北市私立康達老人長期照顧中心（養護型）,板橋區,新北市板橋區大觀路3段220巷22號2~6樓,02-26878791,27000
新北市私立松和老人長期照顧中心(養護型),板橋區,新北市板橋區大觀路3段236號7樓,02-26823334,25000
新北市私立松樹老人長期照顧中心(養護型),板橋區,新北市板橋區大觀路3段236號7樓之1,02-25116881,25000
新北市私立松林老人長期照顧中心(養護型),板橋區,新北市板橋區大觀路3段236號7樓之2,02-25116881,25000
新北市私立春天老人長期照顧中心（養護型）,板橋區,新北市板橋區大觀路3段236號8樓,02-26841858,25000
新北市私立祥寶老人長期照顧中心(養護型),板橋區,新北市板橋區中山路1段206巷6號1樓-2樓,02-29539299,28000
新北市私立祥永老人長期照顧中心(養護型),板橋區,新北市板橋區中山路1段206巷6號3樓,02-89535859,28000
新北市私立祥好尊榮老人養護中心,板橋區,新北市板橋區中山路1段206巷6號4樓,02-29540868,28000
新北市私立祥弘老人長期照顧中心（養護型）,板橋區,新北市板橋區中山路1段206巷6號5樓,02-89533339,28000
新北市私立連旺老人長期照顧中心（養護型）,板橋區,新北市板橋區中山路1段311號、313號、315之1號,02-89520508,29000
新北市私立桐心老人養護中心,板橋區,新北市板橋區中正路302號2樓,02-29688657,32000
新北市私立宏國老人長期照顧中心（養護型）,板橋區,新北市板橋區四川路2段16巷10號7樓,02-89667037,24000
新北市私立祥安居老人長期照顧中心（養護型）,板橋區,新北市板橋區四川路2段16巷1號10樓,02-89665598,30000
新北市私立瑞昇老人長期照顧中心（養護型）,板橋區,新北市板橋區四川路2段16巷1號1樓,02-89675498,30000
新北市私立慈徽老人養護中心,板橋區,新北市板橋區四川路2段16巷1號2樓,02-89665598,24000
新北市私立陽光老人長期照顧中心（養護型）,板橋區,新北市板橋區四川路2段16巷1號5樓,02-89665598,30000
新北市私立皖美老人長期照顧中心（養護型）,板橋區,新北市板橋區四川路2段16巷1號8樓,02-89665598,30000
新北市私立祥元尊榮老人長期照顧中心(養護型),板橋區,新北市板橋區四川路2段16巷8號6樓,02-89668658,32000
新北市私立領袖天下老人長期照顧中心(養護型),板橋區,新北市板橋區四川路2段16巷8號6樓之1,02-89668656,32000
新北市私立仁福老人長期照顧中心(養護型),板橋區,新北市板橋區四川路2段16巷8號6樓之2,02-89668657,29000
新北市私立松園老人長期照顧中心（養護型）,板橋區,新北市板橋區四川路2段16巷8號7樓,02-89665034,29000
新北市私立鴻祥老人長期照顧中心（養護型）,板橋區,新北市板橋區四川路2段16巷9號8樓,02-89675401,29000
新北市私立仁民老人長期照顧中心（養護型）,板橋區,新北市板橋區陽明街61號、61號2樓、61號3樓、61號4樓、61號5樓、61號6樓、61號7樓,02-22587336,29000
新北市私立迦蜜老人長期照顧中心（養護型）,板橋區,新北市板橋區廣權路10號2、3樓,02-29511181,30000
新北市私立重慶老人長期照顧中心(養護型),板橋區,新北市板橋區廣權路10號4樓,02-29648140,29000
新北市私立慧心老人長期照顧中心（養護型）,板橋區,新北市板橋區廣權路2號2樓,02-29567230,29000
新北市私立心田老人長期照顧中心（養護型）,板橋區,新北市板橋區廣權路2號3樓、6號3樓,02-89511426,20000
新北市私立廣福老人養護中心,板橋區,新北市板橋區廣權路2號4樓,02-89514435,35000
新北市私立廣權老人養護中心,板橋區,新北市板橋區廣權路2號5樓,02-89514435,35000
新北市私立安佳老人長期照顧中心（養護型）,板橋區,新北市板橋區館前西路139號6樓,02-29688745,23000
新北市私立迦順老人長期照顧中心（養護型）,板橋區,新北市板橋區館前西路6號8樓,02-29645889,29000
新北市私立惟思老人養護中心,林口區,新北市林口區三民路75號1樓,02-26000888,30000
新北市私立夏雨老人長期照顧中心（長期照護型）,林口區,新北市林口區三民路75號2樓,02-26000888,30000
新北市私立恆輝老人長期照顧中心（養護型）,泰山區,新北市泰山區明志路1段122巷33號,02-22962153,22000
新北市私立尚樂老人長期照顧中心(養護型),泰山區,新北市泰山區明志路3段142巷8號8樓,02-29085527,30000
新北市私立思親老人長期照顧中心（養護型）,淡水區,新北市淡水區下圭柔山114之6號,02-26211033,31500
新北市私立思福老人長期照顧中心（養護型）,淡水區,新北市淡水區下圭柔山114之7號,02-26211033,31500
新北市私立思源老人養護中心,淡水區,新北市淡水區下圭柔山114之8號,02-26211033,31500
新北市私立新明厚老人長期照顧中心（養護型）,淡水區,新北市淡水區中正東路1段27號、27號2樓之1,02-26297290,25000
新北市私立富祥老人長期照顧中心（養護型）,淡水區,新北市淡水區民生路47之4號5、6樓、47之5號4、5樓,02-88093550,25000
新北市私立崇惠老人長期照顧中心（養護型）,淡水區,新北市淡水區坪頂路70巷27號,02-86268833,26000
新北市私立模範老人養護中心,新店區,新北市新店區中正路20號3樓、26號3樓,02-29126188,29000
新北市私立榮華老人長期照顧中心(養護型),新店區,新北市新店區中正路24號5樓、28號5樓,02-29124106,29000
新北市私立國泰老人長期照顧中心（養護型）,新店區,新北市新店區中正路284巷4弄1號、1號2樓、1號3樓,02-29125619,29000
新北市私立匯安老人長期照顧中心（養護型）,新店區,新北市新店區中正路399巷7號1樓-4樓,02-86656656,26000
新北市私立莊敬老人長期照顧中心（養護型）,新店區,新北市新店區中正路521巷1號3樓、3號3樓,02-22185571,23000
新北市私立溫昕老人長期照顧中心（養護型）,新店區,新北市新店區中正路539之3號2樓,02-22190258,25000
財團法人私立廣恩老人養護中心,新店區,新北市新店區北宜路2段579巷45號,02-22173517,36000
新北市私立新家老人長期照顧中心（養護型）,新店區,新北市新店區民生路13號4樓,02-22180877,27000
新北市私立康泰老人長期照顧中心（養護型）,新店區,新北市新店區民生路15號3樓,02-22181535,26000
新北市私立溫馨老人長期照顧中心（養護型）,新店區,新北市新店區民權路147號4樓,02-82187408,28000
新北市私立亞洲老人長期照顧中心（養護型）,新店區,新北市新店區民權路42巷59弄2號2樓,02-86671476,29000
新北市私立亞恩老人長期照顧中心（養護型）,新店區,新北市新店區民權路42巷59弄2號5樓,02-89146536,20000
新北市私立大坪林老人長期照顧中心（養護型）,新店區,新北市新店區民權路58號5樓、60號5樓,02-29111377,29000
新北市私立皇冠老人養護中心,新店區,新北市新店區民權路60號4樓,02-29125488,29000
新北市私立民權老人長期照顧中心(長期照護型),新店區,新北市新店區民權路88之1號2樓,02-86671476,29000
新北市私立日祥老人養護中心,新店區,新北市新店區百忍街38號,02-86659609,27000
新北市私立承新老人長期照顧中心（養護型）,新店區,新北市新店區百忍街38號2樓、3樓、40號2樓、3樓,02-86653731,27000
新北市私立南山老人長期照顧中心(養護型),新店區,新北市新店區寶興路37號5樓,02-29125070,26000
新北市私立新中老人長期照顧中心(養護型),新莊區,新北市新莊區中正路316號5樓,02-29938702,20000
新北市私立長恩老人長期照顧中心（養護型）,新莊區,新北市新莊區中正路393號4樓、387號4樓、389號4樓,02-22013158,30000
新北市私立智英老人長期照護中心,新莊區,新北市新莊區中正路544-36號1樓,02-29085498,30000
新北市私立中英老人養護中心,新莊區,新北市新莊區中正路544-36號2樓,02-29085498,30000
新北市私立傅英老人長期照顧中心（養護型）,新莊區,新北市新莊區中正路544-36號3樓,02-29085498,30000
新北市私立仁英老人養護中心,新莊區,新北市新莊區中正路544-36號4樓,02-29085498,30000
新北市私立佳興老人長期照顧中心（養護型）,新莊區,新北市新莊區公園路226號2樓,02-89920004,30000
新北市私立珍珍老人長期照顧中心（養護型）,新莊區,新北市新莊區化成路354號3樓,02-29981530,38000
新北市私立永瑞老人長期照顧中心（養護型）,新莊區,新北市新莊區化成路354號4樓,02-29941223,38000
新北市私立景馨老人長期照顧中心（養護型）,新莊區,新北市新莊區化成路63巷41號3樓,02-89921892,35000
新北市私立家安老人長期照顧中心(養護型),新莊區,新北市新莊區思源路117號(2層)、119號、119號2樓、121號2樓、123號2樓,02-89929235,30000
新北市私立馨安老人長期照顧中心（養護型）,新莊區,新北市新莊區思源路119號3樓、121號3樓、123號3樓,02-29921656,30000
新北市私立安馨老人長期照顧中心（養護型）,新莊區,新北市新莊區思源路119號4樓、121號4樓、123號4樓,02-29920766,30000
新北市私立常福緣老人長期照顧中心(養護型),新莊區,新北市新莊區思源路87巷18號3樓,02-89933507,30000
新北市私立景頤老人長期照顧中心(養護型),新莊區,新北市新莊區思源路87巷18號3樓之1,02-22772203,30000
新北市私立景福老人長期照顧中心（養護型）,新莊區,新北市新莊區新莊路192號,02-22798833,25000
新北市私立老吾老老人長期照顧中心（養護型）,新莊區,新北市新莊區新樹路315巷1號4樓、1號5樓,02-22020119,34000
新北市私立佳康老人長期照顧中心（養護型）,新莊區,新北市新莊區雙鳳路109號4樓、111號4樓、113號4樓,02-29083466,26000
新北市私立盛禾老人長期照顧中心（養護型）,新莊區,新北市新莊區雙鳳路117號4樓、119號4樓、121號4樓,02-29081656,30000
新北市私立吉康老人長期照顧中心(養護型),新莊區,新北市新莊區雙鳳路121號6樓,02-29031720,33000
新北市私立健安老人長期照顧中心（養護型）,新莊區,新北市新莊區雙鳳路121號7樓、123號7樓,02-29031356,32000
新北市私立宏祈老人長期照顧中心（養護型）,瑞芳區,新北市瑞芳區大埔路110號,02-24579446,30000
新北市私立頤瑞老人長期照顧中心（養護型）,瑞芳區,新北市瑞芳區明燈路3段180號、180號2樓、180號3樓,02-24063372,15000
財團法人新北市私立馨園老人養護中心,萬里區,新北市萬里區公舘崙23-1號,02-24989331,32000
新北市立仁愛之家,萬里區,新北市萬里區玉田路61號,02-24922511,29000
新北市私立慈嘉老人長期照顧中心（養護型）,樹林區,新北市樹林區大安路323巷10弄14號、16號、18號、20號,02-26863706,35000
新北市私立嘉恩老人長期照顧中心（養護型）,樹林區,新北市樹林區大安路512號3樓、516號3樓、518號3樓,02-26833348,35000
新北市私立恆愛老人長期照顧中心（養護型）,樹林區,新北市樹林區中山路2段151巷12號5樓、12之1號5樓,02-86852927,25000
新北市私立禾閤老人長期照顧中心(養護型),樹林區,新北市樹林區中山路2段162號,02-26852999,29000
新北市私立慈泰老人長期照顧中心（養護型）,樹林區,新北市樹林區中正路632巷1號,02-26899333,35000
新北市私立嘉宥老人長期照顧中心(養護型),樹林區,新北市樹林區中正路632巷1號（2層）,02-26863706,35000
新北市私立保安老人長期照顧中心(養護型),樹林區,新北市樹林區保安街二段64號4樓、64號5樓、64號6樓,02-26863810,30000
新北市私立恩祥老人長期照顧中心（養護型）,蘆洲區,新北市蘆洲區三民路26巷51號3樓,02-22885959,38000
新北市私立吉立老人養護中心,蘆洲區,新北市蘆洲區中山一路238、240號各2樓,02-22855703,29000
新北市私立佳緣老人長期照顧中心（養護型）,鶯歌區,新北市鶯歌區中山路41號、41號2樓、41號3樓、41號4樓,02-26707278,20000
新北市私立愛鄰田園老人長期照顧中心（養護型）,鶯歌區,新北市鶯歌區建國路596巷38號、40號,02-86773288,29000
新北市私立大漢老人長期照顧中心（養護型）,汐止區,新北市汐止區福德路38號5樓之1,02-26932918,30000
新北市私立匯福老人長期照顧中心（養護型）,新店區,新北市新店區竹林路99號1樓-4樓,02-22178035,29000
新北市私立溫馨園老人長期照顧中心（養護型）,鶯歌區,新北市鶯歌區建國路85號4樓,02-26782277,26000
